X,Y,tourism,name,addr:street,name:en,addr:housenumber,attraction,website,addr:postcode,phone,wheelchair,addr:city,wikidata,addr:state,opening_hours,wikipedia,description,historic,amenity,ele,leisure,name:ko,url,alt_name,artwork_type,name:de,name:ru,name:zh
-74.0131898,40.7130054,attraction,1 World Trade Center,Fulton Street,,285,,https://www.onewtc.com/,10007,,,,,,,,,,,,,,,,,,,
-74.0043915,40.7056075,attraction,80 South Street,,80 South Street,,,,,,,,,,,,,,,,,,,,,,,
-73.9882782,40.7038881,attraction,92 Gallery,,92 Gallery,,,,,,,,,,,,,,,,,,,,,,,
-74.0047209,40.747931,attraction,access High Line Park,,access High Line Park,,,,,,,,,,,,,,,,,,,,,Aufgang High Line Park,,
-74.005958,40.7459698,attraction,Access High Line Park,,Access High Line Park,,,,,,,,,,,,,,,,,,,,,Aufgang High Line Park,,
-74.0018026,40.7523843,attraction,Access High Line Park,,Access High Line Park,,,,,,,,,,,,,,,,,,,,,Aufgang High Line Park,,
-78.8528175,42.939883,attraction,Addax,,,,,,,,,,,,,,,,,,,,,,,,,
-77.6224904,43.2077606,attraction,African Black-footed Penguin,,,,animal,,,,,,,,,,,,,,,,,,,,,
-77.6208172,43.2097374,attraction,African Elephant,,,,animal,,,,,,,,,,,,,,,,,,,,,
-77.6236945,43.207001,attraction,African Spurred Tortoise,,,,animal,,,,,,,,,,,,,,,,,,,,,
-73.8806555,40.8474091,attraction,African Wild Dogs,,,,animal,,,,yes,,,,,,,,,,,,,,,,,
-73.4469544,44.6814372,attraction,Airplane,,,,,,,,,,,,,,,,,,,,,,,,,
-74.0007056,44.1312521,attraction,Airplane Wreckage,,,,,,,,,,,,,,Airplane wreckage. 1962-08-09. Single-engine aircraft. Pilot survived and was rescued.,,,,,,,,,,,
-77.622727,43.2075159,attraction,Amar Tiger,,,,animal,,,,,,,,,,,,,,,,,,,,,
-77.6239949,43.2058991,attraction,American Alligator,,,,animal,,,,,,,,,,,,,,,,,,,,,
-74.0035301,40.7172271,attraction,American Icon,Broadway,American Icon,360,,,,,,,,,,,,,,,,,,,,,,
-71.8974986,41.0549702,attraction,Amsterdam Beach Trail,Ranch Road,,,,,,,,,,,,,,,,,,,,,,,,
-73.9739449,40.7611131,attraction,Anton Kern Gallery,,,,,https://antonkerngallery.com/,,,,,,,,,,,,,,,,,,,,
-73.9656246,40.773329,attraction,Archibald’s Townhouse,,,,,,,,,,,,,,,,,,,,,,,,,
-73.9812647,40.7471957,attraction,Arguably the best location to see evening Manhattan Henge,Park Avenue,,,,,,,,,,,,,,,,,,,,,,,,
-77.6237052,43.206933,attraction,Asian Rock Python,,,,animal,,,,,,,,,,,,,,,,,,,,,
-73.4612138,44.5245278,attraction,Ausable Chasm,,,,,http://www.ausablechasm.com/,,,,,,,,,,,,,,,,,,,,
-73.8787816,40.8481157,attraction,Baboons,,,,animal,,,,,,,,,,,,,,,,,,,,,
-73.9973055,40.7560502,attraction,BAC,,,,,https://www.bacnyc.org/,10018,+16467313200,,,,,Mo-Sa 10:00-17:00,,,,,,,,,,,,,
-77.6240202,43.2062888,attraction,Bald Eagle,,,,animal,,,,,,,,,,,,,,,,,,,,,
-77.503102,42.9953436,attraction,Baptist Church & Cemetery,Mendon Ionia Road,,,,,,,,,,,,,,,,,,,,,,,,
-74.0099251,40.7098195,attraction,Barthman's Sidewalk Clock,Maiden Lane,Barthman's Sidewalk Clock,,,,,,,,,,,,,,,,,,,,,,тротуарные часы,
-73.8776713,40.8488772,attraction,Bears,,,,animal,,,,yes,,,,,,,,,,,,,,,,,
-73.6433698,41.2029341,attraction,Bedford Village Historic District,,,,,,,,,,Q4879212,,,,,,,109,,,,,,,,
-73.9847678,40.7264893,attraction,big gay ice cream,,,,,,,,,,,,,,,,,,,,,,,,,
-78.852764,42.9384445,attraction,Bighorn Sheep,,,,,,,,,,,,,,,,,,,,,,,,,
-73.897751,40.8211858,attraction,Big Pun mural,,,,,,,,,,,,,,,,,,,,,,,,,
-74.8522781,43.7469382,attraction,Big Rock,,,,,,,,,,,,,,,,,,,,,,,,,
-76.8220203,42.6766662,attraction,Birth place of Zebedee Coltrin,,,,,,,,,,,,,,,,,,,,,,,,,
-78.8552376,42.939078,attraction,Bison,,,,,,,,,,,,,,,,,,,,,,,,,
-73.8767183,40.8536331,attraction,Bison Range,,,,,,,,yes,,,,,,,,,,,,,,,,,
-73.6775136,43.3350482,attraction,Blind Rock,,,,,https://www.queensbury.net/index.php?option=com_content&view=article&id=111&Itemid=150,,,,,,,,,Nearby Queensbury historical marker  states:  The Blind Rock marker denotes an ancient gneiss boulder which was known to Native Americans and early colonists as the bounds between lands held by the English and French prior to the French and Indian war.,battlefield,,,,,http://www.rootsweb.ancestry.com/~nywarren/countyhistory/holden/i_i.htm,,,,,
-73.9981297,40.7144198,attraction,Bloody Angle,,,,,,,,,,Q885252,,,,,,,,,,,,,,,
-77.5429401,43.2338199,attraction,Bobsleds,,,,roller_coaster,,,,,,,,,,Historic in-house designed and built tube track roller coaster,,,,,,,,,,,
-73.9219447,40.7074469,attraction,Booshwick Streetart,,,,,,,,,,,,,,,,,,,,,,,,,
-77.6239898,43.2054993,attraction,Bornean Orangutan,,,,animal,,,,,,,,,,,,,,,,,,,,,
-72.7424531,40.8712552,attraction,boulder,,,,,,,,,,,,,,,,,,,,,,,,,
-78.7175501,42.4266346,attraction,Boundary,,Boundary,,,,,,,,,,,,,,,,,,,,,,,
-77.4988396,42.9704784,attraction,Brigham Young Home and Mill Site,,,,,,,,,,,,,,,,,,,,,,,,,
-73.9964806,40.702197,attraction,Brooklyn Bridge Park,"334 Furman St, Brooklyn",,,,https://www.brooklynbridgepark.org/,NY 11201,,,,,,Mo-Su 06:00-01:00,,,,,,,,,,,,,
-73.9983246,40.6956299,attraction,Brooklyn Heights Promenade,,,,,,,,,,Q15205111,,,,,,,,,,,,,,,
-73.9839079,40.7535128,attraction,Bryant Park,,Bryant Park,,carousel,,,,,,,,,,,,,,,브라이언트 파크,,,,,,
-73.9717588,40.767819,attraction,California Sea Lion,,,,animal,,,,yes,,,,,,,,,,,,,,,,,
-73.9985965,40.7171152,attraction,Canal Street,,,,,,,,,,,,,,,,,,,,,,,,,
-74.0008621,40.7189869,attraction,Canal street market,Canal Street,,261,,,10013,,,,,,,,,,,,,,,,,,,
-74.0344625,40.6116361,attraction,Cannon,,,,,,,,,,,,,,,,,,,,,,,,,
-78.8531653,42.9384644,attraction,Carousel (seasonal),,,,carousel,,,,,,,,,,,,,,,,,,,,,
-74.0038558,40.7353655,attraction,Carrie Bradshaw House,,,,,http://www.1000thingsnyc.com/carrie-bradshaw-house/,,,,,,,,,,,,,,,,,,,,
-76.5244498,42.4569351,attraction,Car turnout/speed trap,,Car turnout/speed trap,,,,,,,,,,,,,,,,,,,,,,,
-74.0038435,40.7353019,attraction,Casa di Carrie,,,,,,,,,,,,,,,,,,,,,,,,,
-73.4958208,42.0311584,attraction,cascade,,,,,,,,,,,,,,,,,,,,,,,,,
-79.0712798,43.0836513,attraction,Cave of the Winds,,,,,,,,,,,,,,,,,,,,,,,,,
-76.7353144,42.8307412,attraction,Cayuga Lake (Thomas B. Marsh),,,,,,,,,,,,,,,,,,,,,,,,,
-78.9018637,42.9006424,attraction,Charles & Marie Fontana Boathouse,,,,,,,,,,,,,,,,,,,,,,,,,
-74.0018779,40.7458698,attraction,Chelsea,,Chelsea,,,,,,,,,,,,,,,,,,,,,,,
-73.9903215,40.7436928,attraction,Chelsea Flea Market,,Chelsea Flea Market,,,,,,,,,,,,,,,,,,,,,Chelsea Flea Market,,
-74.0069958,40.7429236,attraction,Chelsea Market,9th Avenue,,75,,http://chelseamarket.com/,10011,+12122436005,,,,,"Mo-Sa 07:00-21:00; Su 08:00-20:00",,,,,,,첼시마켓,,,,,,
-77.7960304,43.0590424,attraction,Chili Historical Society,,,,,,,,,,,,,,A building containing information about local history.,,,,,,,,,,,
-74.229794,43.6877982,attraction,Chimney Mountain,,,,,,,,,,,,,,,,,,,,,,,,,
-73.9967059,40.7152617,attraction,chinatown,,,,,,,,,,,,,,,,,,,,,,,,,
-73.9984718,40.7156257,attraction,Chinatown,,,,,,,,,,,,,,,,,,,,,,,,,
-74.0015777,40.7628257,attraction,Circle line ferry's,,,,,,,,,,,,,,,,,,,,,,,,,
-77.2303714,43.0386991,attraction,Clark Chase Farm,,,,,,,,,,,,,,,,,,,,,,,,,
-74.9993906,44.6606701,attraction,Clarkson 9/11 Memorial,,,,,,,,,,,,,,,,,,,,,,,,,
-74.0047756,40.7580806,attraction,Classic Car Club Manhattan,12th Avenue,,408,,https://classiccarclubmanhattan.com/,10018,+12122292402,,,,,Mo-Su 09:00-13:00,,,,,,,,,,,,,
-75.3837234,43.051195,attraction,Clinton Cider Mill,Elm Street,,,,,,,,,,,,,,,,,,,,,,,,
-73.9907173,40.7436081,attraction,Cocktail Kingdom,,Cocktail Kingdom,,,,,,,,,,,,,,,,,,,,,,,
-75.928546,42.3411586,attraction,Coles Maple Syrup and Cream,State Highway 206,,,,,,,,,,,,,,,,,,,,,,,,
-75.6657323,42.1491197,attraction,Cole's tavern ,,,,,,,,,,,,,,,,,,,,,,,,,
-75.6050328,42.1878776,attraction,Colesville Branch,East Windsor Road,,1945,,,,,,,,,,,,,,,,,,,,,,
-73.9924535,40.72928,attraction,Colonnade row,,,,,,,,,,Q8348030,,,en:Colonnade Row,,,,,,,,,,,,
-74.0062226,40.7258444,attraction,Color Factory,Spring Street,,251,,http://colorfactory.co,,,,,,,Th-Tu 10:00-23:00,,,,,,,,,,,,,
-74.0004746,41.2984078,attraction,concrete steps,,,,,,,,,,,,,,,,,,,,,,,,,
-73.9754812,40.5741011,attraction,Conservation Hall,,,,,,,,,,,,,,,,,,,,,,,,,
-77.6769869,43.0843202,attraction,Construction 105,,,,,http://artoncampus.rit.edu/art/39/,,,,,,,,,,,,,,,,,sculpture,,,
-75.7418578,42.3200324,attraction,Cook Park,,Cook Park,,,,,,,,,,,,,,,,,,,,,,,
-73.7317693,42.7038173,attraction,Corning Plot,,,,,,,,,,,,,,,,,,,,,,,,,
-74.0023028,40.7177393,attraction,Cortlandt Alley,,,,,,,,,,,,,,,,,,,,,,,,,
-77.623018,43.2077515,attraction,Cougar,,,,animal,,,,,,,,,,,,,,,,,,,,,
-73.9850116,40.7273461,attraction,Couv Led Zepp 5e album,,,,,,,,,,,,,,,,,,,,,,,,,
-73.9824692,40.7426273,attraction,"""Curry hill""",,"""Curry hill""",,,,,,,,,,,,,,,,,,,,,,,
-73.5879868,41.7342262,attraction,curved outcropping,,,,,,,,,,,,,,,,,,,,,,,,,
-73.9776669,40.5750669,attraction,Cyclone Rollercoaster,,,,,,,,,,Q677558,,,en:Coney Island Cyclone,,yes,,,,,,,,,,
-73.5969358,40.8759564,attraction,Daniel Gale Real Estate,,Daniel Gale Real Estate,,,,11560,,,,,,,,,,,,,,,,,,,
-73.7345695,42.704858,attraction,Daniel Manning Grave,,,,,,,,,,,,,,,,,,,,,,,,,
-77.6361672,43.0831131,attraction,Dave & Buster's,Miracle Mile Drive,,15,,https://www.daveandbusters.com/locations/rochester,14623,+1-585-417-4300,yes,Rochester,,NY,,,"Famous Adult Bar, Grill, and Arcade ",,,,amusement_arcade,,,,,,,
-73.9711748,40.7681147,attraction,Delacorte Musical Clock,,,,,,,,,,,,,,,yes,clock,,,,,,,,,
-78.8751269,42.9352103,attraction,Delaware Park Japanese Gardens,,,,,,,,,,,,,,,,,,,,,,,,,
-73.9801423,40.757242,attraction,Diamond District,,,,,,,,,,Q1208691,,,en:Diamond District,,,,,,,,,,,,
-73.4908855,42.0374119,attraction,dim blue trail continues,,,,,,,,,,,,,,,,,,,,,,,,,
-73.5900427,41.7324668,attraction,dim path continues,,,,,,,,,,,,,,,,,,,,,,,,,
-73.492747,42.0450999,attraction,dim path continues,,,,,,,,,,,,,,,,,,,,,,,,,
-73.7143461,43.4225286,attraction,Doctor Morbid's Haunted House,,,,,,,,,,,,,,,,,,,,,,,,,
-73.588935,41.7380902,attraction,Dover Stone Church,,,,,,,,,,,,,,,,,,,,,,,,,
-74.9906645,42.0762093,attraction,Downsville Covered Bridge,,,,,,,,,,,,,,,,,,,,,,,,,
-77.234172,43.063752,attraction,Dr. Alexander McIntyre Home,West Main Street,,109,,,,,,,,,,,,,,,,,,,,,,
-74.0048345,40.7184994,attraction,Dream house,,Dream house,,,,,,,,,,Th-Sa 14:00-00:00,,,,,,,,,,,,,
-73.9965692,40.7313956,attraction,Dr. Neville's I Am Legend townhouse,,,,,,,,,,,,,,,,,,,,,,,,,
-73.9626251,40.6558823,attraction,Drummer's Grove,,,,,,,,,,,,,,,,,,,,,,,,,
-73.9895414,40.7032046,attraction,Dumbo Photozone,,Hausnummer 33 Galerie,,,,,,,,,,,,,,,,,,,,,,,
-73.7506929,42.6416553,attraction,Dutch Apple Cruises,Broadway,,139,,,12202,,,Albany,,NY,,,,,,,,,http://dutchapplecruises.com,,,,,
-77.2307606,43.0637068,attraction,EB Grandin Bookstore,East Main Street,,219,,,,,,,,,,,,,,,,,,,,,,
-76.0454397,42.3573239,attraction,Ed's Fish Auction (turn here sign),,Ed's Fish Auction (turn here sign),,,,,,,,,,,,,,,,,,,,,,,
-76.5104507,42.4407529,attraction,Emmy's Organics,,Emmy's Organics,,,,,,,,,,,,,,,,,,,,,,,
-73.9849958,40.7481628,attraction,Empire State Building,5th Avenue,,350,,https://www.esbnyc.com/,10118,2127363100,yes,,,,Mo-Su 08:00-02:00,,,,,,,엠파이어 스테이트 빌딩,,,,,,
-77.6233239,43.2066484,attraction,Emu,,,,animal,,,,,,,,,,,,,,,,,,,,,
-73.7310987,42.7048306,attraction,Erastus Dow Palmer Grave,,,,,,,,,,,,,,,,,,,,,,,,,
-77.2339142,43.065952,attraction,Erie Canal ,,,,,,,,,,,,,,,,,,,,,,,,,
-76.1990435,42.3566287,attraction,Ernie's Bait and Tackle,,Ernie's Bait and Tackle,,,,,,,,,,,,,,,,,,,,,,,
-73.8614237,41.0887934,attraction,Escultura jinete sin cabeza,,,,,,,,,,,,,,,,,,,,,,,,,
-78.7516628,42.7017528,attraction,Eternal Flame Falls,,,,,,,,,,,,,,,,,,,,,,,,,
-72.7591178,40.8664214,attraction,Exit sign,,,,,,,,,,,,,,,,,,,,,,,,,
-73.9992431,40.7173683,attraction,Explore Chinatown Information Kiosk,,,,,,,,,,,,,,,,,,,,,,,,,
-76.6483248,42.5194314,attraction,Fire hydrant,,Fire hydrant,,,,,,,,,,,,,,,,,,,,,,,
-78.6121291,42.772802,attraction,Fisher Price Toy Store,,,,,,,,,,,,,,,,,,,,,,,,,
-73.8806403,40.8490562,attraction,Flamingos,,,,animal,,,,,,,,,,,,,,,,,,,,,
-73.9896534,40.7410722,attraction,Flatiron District,,,,,,10010,,,,Q1427377,,,,,,,,,,,,,,,
-73.8422002,44.3655876,attraction,Flume Falls,,,,,,,,,,,,,,,,,,,,,,,,,
-73.9814247,40.7570047,attraction,Food Truck Street,,,,,,,,,,,,,,,,,,,,,,,,,
-74.2263489,41.2489221,attraction,Forrest of Fear,,,,,,,,,,,,,,,,,,,,,,,,,
-75.8043045,44.0586401,attraction,Fort Drum MWR,,,,,,,,,,,,,,,,,,,,,,,,,
-73.3876062,43.8417062,attraction,Fort Ticonderoga,,,,,https://www.fortticonderoga.org/,,,,,,,,,,,,,,,,,,,,
-74.0122141,40.6915006,attraction,Free Kayaking with the Downtown Boathouse,,,,,,,,,,,,,,,,,,,,,,,,,
-73.9835751,40.7725562,attraction,Free Public Stargazing,,,,,https://www.aaa.org/,,,,,,,,,,,,,,,,,,,,
-74.0077867,40.742058,attraction,Free Public Stargazing,,,,,https://www.aaa.org/,,,,,,,,,,,,,,,,,,,,
-74.0052999,40.7323594,attraction,Friends Building,Bedford Street,,90,,,10014,,,New York,,,,,,,,,,,,,,,,
-77.6199201,43.1590315,attraction,Frontier Field Walk of Fame,,,,,http://www.frontierfield.org/walkoffame/frontierhome.html,,,,,,,,,,monument,,,,,,,,,,
-73.714212,43.4229414,attraction,Fun World Arcade,,,,,,,,,,,,,,,,,,,,,,,,,
-73.9738339,40.7669278,attraction,Gapstow bridge,,,,,,,,,,,,,,,,,,,,,,,,,
-73.849555,40.7440374,attraction,Gates of Life,,,,,,,,,,,,,,,,,,,,,,,,,
-78.8546852,42.9400934,attraction,Gemsbok,,,,,,,,,,,,,,,,,,,,,,,,,
-73.971457,40.7683299,attraction,Gentoo Penguin,,,,animal,,,,,,,,,,,,,,,,,,,,,
-73.9695116,40.5746261,attraction,Giant Squid,Surf Avenue,,,,,11235,,,Brooklyn,,NY,,,,,,,,,,,,,,
-73.9591072,40.7947038,attraction,Glen span arch,,,,,,,,,,,,,,,,,,,,,,,,,
-73.9757117,40.5739518,attraction,Glover's Reef,,,,,,,,,,,,,,,,,,,,,,,,,
-75.5420347,42.3135386,attraction,Golf Driving Range,,Golf Driving Range,,,,,,,,,,,,,,,,,,,,,,,
-74.0592748,43.6878587,attraction,Gore Mt. Mineral Shop,,,,,http://www.garnetminetours.com/,,,,,,,,,,,,,,,,,,,,
-78.854449,42.9389628,attraction,Gorilla,,,,,,,,,,,,,,,,,,,,,,,,,
-73.4326211,42.7319448,attraction,Grandfather Rock,,,,,,,,,,,,,,,,,,,,,,,,,
-76.2141799,43.0729555,attraction,Great New York State Fair,State Fair Boulevard,,581,,,13209,315 487 7711,,Syracuse,Q5599624,NY,,en:Great New York State Fair,,,,,,,,New York State Fair,,,,
-74.0028172,40.7335844,attraction,Greenwich Village,,Greenwich Village,,,,,,,,Q205380,,,en:Greenwich Village,,,,,,,,,,,,
-73.994485,40.7575014,attraction,Grey houndiin bus stop,,,,,,,,,,,,,,,,,,,,,,,,,
-73.971913,40.7684111,attraction,Grizzly Bear,,,,animal,,,,limited,,,,,,,,,,,,,,,,,
-74.0057762,40.7321795,attraction,Grove Court,,,,,,,,,,,,,,,,,,,,,,,,,
-78.8142927,42.7378833,attraction,Hamburg Fairgrounds,,,,,,,,yes,,,,,,,,,,,,,,,,,
-74.9886596,42.1958134,attraction,Hamden Covered Bridge,,,,,,,,,,,,,,,,,,,,,,,,,
-73.9697619,40.6531744,attraction,Hammerhead Peninsula,,,,,,,,,,,,,,,,,,,,,,,,,
-73.998611,40.731889,attraction,Hangman's Elm,,,,,,,,,,Q1407769,,,,,,,,,,,,,,,
-77.6038583,43.1604334,attraction,Harro East Ballroom,North Chestnut Street,,155,,https://harroeastballroom.com/,14607,+1-585-454-0230,yes,Rochester,,NY,,,"Landmark and historic Concert Hall, Theater, and Event space.  ",building,theatre,,,,,,,,,
-77.2415235,43.0381889,attraction,Hathway Brook,,,,,,,,,,,,,,,,,,,,,,,,,
-79.0632781,43.0858398,attraction,Haunted House of Wax,,,,,,,,,,,,,,,,,,,,,,,,,
-77.501429,42.96468,attraction,Heber C. Kimball,,,,,,,,,,,,,,,,,,,,,,,,,
-76.8663699,42.4181227,attraction,Hectors Falls,,Hectors Falls,,,,,,,,,,,,,,,,,,,,,,,
-74.0045942,40.7467801,attraction,High Line Access,,High Line Access,,,,,,,,,,,,,,,,,,,,,,,
-74.0066972,40.745118,attraction,High Line Park,,,,,,,,,,,,,,,,,,,,,,,,,
-75.9454366,42.1113741,attraction,"""Home of the Square Deal"" Arch",,,,,,,,,,,,,,,,,,,,,,,,,
-77.2248871,43.0622455,attraction,Home site of the Joseph Smith Sr Family,Vienna Street,,202,,,,,,,,,,,,,,,,,,,,,,
-73.8498392,41.0120128,attraction,House Of Sports,Elm Street,,1,,http://www.houseofsportsny.com,,,,,,,Mo-Su 09:00-22:00,,,,,,,,,,,,,
-74.3985395,42.6962438,attraction,Howe Caverns,Discovery Drive,,255,,https://www.howecaverns.com/,12092,+1 (518) 296-8900,,Howes Cave,,,,,,,,,,,,,,,,
-73.9556352,40.7958354,attraction,Huddlestone arch,,,,,,,,,,,,,,,,,,,,,,,,,
-74.0867254,41.7521372,attraction,Huguenot Street Historic District,,,,,,,,,,,,,,,,,62,park,,,,,,,
-76.7211749,42.5126527,attraction,Hunt's Christmas Tree Farm In The Finger Lakes,Stillwell Road,,5770,,http://www.winecountrycabins.com/finger-lakes/tree-farm/index.htm,14886,(607) 387-9399,,,,,,,,,,,,,,,,,,
-74.8635013,42.7902232,attraction,"Hyde Hall Covered Bridge, 1825",,,,,,,,,,,,,,,,,,,,,,,,,
-74.035103,43.096298,attraction,Hyzer Creek Disc Golf Course,Barkersville Road,Hyzer Creek Disc Golf Course,7272,,http://hyzercreek.com,12850,,,,,,,,,,,,,,,,,,,
-73.8928438,40.8238878,attraction,I Love the Bronx mural,,,,,,,,,,,,,,,,,,,,,,,,,
-76.5155973,42.4443352,attraction,Incodema,,Incodema,,,,,,,,,,,,,,,,,,,,,,,
-77.5718244,42.9757788,attraction,Ira Bond Home site,,,,,,,,,,,,,,,,,,,,,,,,,
-77.4982266,42.9655528,attraction,Jhon P. Green,,,,,,,,,,,,,,,,,,,,,,,,,
-73.7258416,42.7069633,attraction,John Van Buren Grave,,,,,,,,,,,,,,,,,,,,,,,,,
-77.5021989,42.9740931,attraction,John Young Home ( back portion),,,,,,,,,,,,,,,,,,,,,,,,,
-77.5021986,42.9744007,attraction,John Young Home ( front portion),Cheese Factory Road,,,,,,,,,,,,,,,,,,,,,,,,
-75.5838967,42.2110409,attraction,Joshia Stowell Home & Farm ,State Highway 7,,323,,,,,,,,,,,,,,,,,,,,,,
-74.1105444,40.5940077,attraction,Jurassic Park,Todt Hill Road,,724,,https://www.dnainfo.com/new-york/20120606/todt-hill/dinosaurs-dragons-transform-staten-island-home-into-fantasy-world,10304,,,Staten Island,,NY,,,,,,,,,,,,,,
-73.997566,40.699556,attraction,Kayak Brooklyn,,,,,,,,,,,,,,,,,,,,,,,,,
-73.9465643,40.8237942,attraction,La casa de los Tenenbaums,Convent Avenue,La casa de los Tenenbaums,339,,,10031,,,,,,,,,,,,,,,,,,,
-73.9946773,40.733199,attraction,La de forest house,,La de forest house,,,,,,,,,,,,,,,,,,,,,,,
-79.3369697,42.4533785,attraction,Lake Shore Savings Clock Tower,,,,,,,,,,,,,,,,,,,,,,,,,
-78.5969968,42.9306067,attraction,Lancaster NIKE Base (Historical),,,,,,,,,,,,,,,yes,,,,,,,,,,
-73.996371,40.6952161,attraction,Large Anchor,Montague Street,,76,,,11201,,,Brooklyn,,,,,,,,,,,,,,,,
-73.9979534,41.2937927,attraction,large red oak,,,,,,,,,,,,,,,,,,,,,,,,,
-77.6258816,43.0802426,attraction,Lasertron,Marketplace Drive,,1175,,https://rochester.lasertron.us/,14623,+1-585-397-7447,yes,Rochester,,NY,,,,,,,adult_gaming_centre,,,,,,,
-76.3212174,42.3869502,attraction,Leachwood Farm,,Leachwood Farm,,,,,,,,,,,,,,,,,,,,,,,
-73.7134878,43.424617,attraction,Leonelli's Playland Arcade,,,,,,,,,,,,,,,,,,,,,,,,,
-73.9818662,40.7210728,attraction,Le Petit Versailles,East Houston Street,,346,,http://alliedproductions.org/le-petit-versailles/,,2125298815,,,,,,,,,,,,,,,,,,
-73.9933152,40.711079,attraction,LES SKATEPARK,,,,,,,,,,,,,,,,,,,,,,,,,
-77.6214897,43.2090637,attraction,Lion,,,,animal,,,,,,,,,,,,,,,,,,,,,
-78.8544543,42.9396896,attraction,Lions,,,,,,,,,,,,,,,,,,,,,,,,,
-76.0118168,42.352979,attraction,Lisle Fire Service,,Lisle Fire Service,,,,,,,,,,,,,,,,,,,,,,,
-77.0577173,42.145259,attraction,Little Joe Tower,,,,,,,,,,,,,,,,,,,,,,,,,
-73.9921517,40.724241,attraction,Liz Christy Garden,,,,,,,,,,Q6660076,,,en:Liz Christy Garden,,,,,,,,,,,,
-73.7094315,43.4209407,attraction,LK.Geo.SteamBoat Co.,,,,,,,,,,,,,,,,,,,,,Lake George Steamboat Company,,,,
-78.6926407,43.1718658,attraction,Lockport Cave & Underground Boat Ride,Gooding Street,,5,,https://lockportcave.com/,14094,+1 716 438 0174,,Lockport,,NY,,,,,,,,,,,,,,
-76.1067067,42.3635869,attraction,Lopke,,Lopke,,,,,,,,,,,,,,,,,,,,,,,
-73.9871259,40.7203544,attraction,Low Line Park,,,,,,,,,,,,,,,,,,,,,,,,,
-77.2455847,43.0913719,attraction,Lucy Harris Home & Farm,Macedon Center Road,,2827,,,,,,,,,,,,,,,,,,,,,,
-78.8632388,42.8491678,attraction,Lucy Smith & Colesville,,,,,,,,,,,,,,,,,,,,,,,,,
-73.9786489,40.5752152,attraction,Luna Arcade,,,,,,,,,,,,,,,,,,,,,,,,,
-73.9946122,40.7346861,attraction,Mad about you building,,,,,,,,,,,,,,,,,,,,,,,,,
-73.995237,40.7164099,attraction,Mahayanna Buddhist Center,,,133,,,,,,,,,,,,,,,,,,,,,,
-73.9883555,40.7233199,attraction,Maison sur les toits,,Maison sur les toits,,,,,,,,,,,,,,,,,,,,,,,
-77.9381174,42.9925582,attraction,Marion Steam Shovel,,,,,,,,,,Q6765375,,,"en:Marion Steam Shovel (Le Roy, New York)",,yes,,,,,,,,,,
-73.9964593,40.7337057,attraction,Mark Twain House,,,,,,,,,,,,,,,,,,,,,,,,,
-77.239623,43.0847264,attraction,Martin Harris Farm,Maple Avenue,,2095,,,,,,,,,,,,,,,,,,,,,,
-74.0960079,44.3056637,attraction,Mckenzie Pond Bouldering Access (appx),,,,,,,,,,,,,,,,,,,,,,,,,
-74.0075113,40.7409502,attraction,Meatpacking District,,Meatpacking District,,,,,,,,,,,,,,,,,,,,,,,
-77.6239594,43.2057878,attraction,Meerkat,,,,animal,,,,,,,,,,,,,,,,,,,,,
-77.5047243,42.997763,attraction,Mendon General Store,Rush Mendon Road,,3913,,,,,,,,,,,,,,,,,,,,,,
-77.623177,43.2075733,attraction,Mexican Gray Wolf,,,,animal,,,,,,,,,,,,,,,,,,,,,
-75.0195211,41.5563263,attraction,mill site?,,,,,,,,,,,,,,,,,,,,,,,,,
-73.5786211,43.1129673,attraction,Mohawk Maiden Cruises,,,,,https://mohawkmaidencruises.com/index.html,,,,,,,,,,,,,,,,,,,,
-78.8525328,42.9390063,attraction,M&T Bank Rainforest Falls,,,,,,,,,,,,,,,,,,,,,,,,,
-76.8552394,42.5218252,attraction,Muddy Fingers Farm,Dugue Road,,3800,,http://muddyfingersfarm.blogspot.com,14841,(607) 546-4535,,,,,"Fr 09:00-18:00, May-Oct",,,,,,,,,,,,,
-77.2390202,43.079266,attraction,Nathan Harris Home Site,Maple Avenue,,1971,,,,,,,,,,,,,,,,,,,,,,
-75.0445077,41.5845393,attraction,natural rock shelter,,,,,,,,,,,,,,,,,,,,,,,,,
-73.9796681,40.7591424,attraction,NBC Studios,,,,,,,,,,,,,,,,,,,,,,,,,
-73.8777092,40.8516445,attraction,New York City Zoo,,,,,,,,,,,,,,,,,,,,,,,,,
-73.7580873,42.6529766,attraction,New York State Capitol Tour,,,,,,,,,,,,,,,,,,,,https://empirestateplaza.ny.gov/tours/new-york-state-capitol,,,,,
-73.7604517,42.6464026,attraction,New York State Executive Mansion Tour,,,,,,,,,,,,,,,,,,,,https://www.governor.ny.gov/explore-governors-mansion,,,,,
-79.0642558,43.0863441,attraction,Niagara Wax Museum of History,,,,,,,,,,,,,,,,,,,,,,,,,
-73.9689522,40.8027944,attraction,Nicholas Roerich Museum,,,,,,,,,,,,,,,,,,,,,,,,,
-73.9846757,40.7535872,attraction,Nicola Tesla corner,6th Avenue,,,,,10018,,,,,,,,,,,,,,,,,,,
-74.1784668,44.1346359,attraction,Noah Rondeau hermitage,,,,,,,,,,,,,,,,,,,,,,,,,
-76.1488675,42.5099718,attraction,Nor’easter Mountain Coaster,,,,,,,,,,,,,,,,,,,,,,,,,
-77.6238646,43.2068938,attraction,North American River Otter,,,,animal,,,,,,,,,,,,,,,,,,,,,
-73.4873391,42.0495305,attraction,NY - MA Marker,,,,,,,,,,,,,,,,,,,,,,,,,
-73.9856549,40.7483271,attraction,NY Skyride,5th Avenue,,350,,,10118,+1 212-279-9777,,New York,,NY,,,,,,,,,,,,,,
-74.4410939,42.4717057,attraction,Old Blenheim Covered Bridge,,,,,,,,,,,,,,,,,,,,,,,,,
-76.4425329,42.6675649,attraction,Old Dam,,,,,,,,,,,,,,,,,,,,,,,,,
-79.0633683,43.2628063,attraction,Old Ford Niagara,,,,,,,,,,,,,,,,,,,,,,,,,
-77.620893,43.2092334,attraction,Olive Baboon,,,,animal,,,,,,,,,,,,,,,,,,,,,
-79.0641361,43.0874461,attraction,One Niagara Welcome Center,,,,,,,,,,,,,,,,,,,,,,,,,
-73.9474058,40.8230347,attraction,Original brown stone houses,Convent Avenue,Original brown stone houses,,,,,,,,,,,,,,,,,,,,,,,
-77.2414609,43.010572,attraction,Original Stafford Schoolhouse,,,,,,,,,,,,,,,,,,,,,,,,,
-77.6225264,43.208443,attraction,Owl,,,,animal,,,,,,,,,,,,,,,,,,,,,
-72.3188936,41.1407368,attraction,Oyster Pond,,Oyster Pond,,,,,,,,,,,,,,,,,,,,,,,
-79.4876075,42.0730673,attraction,panama rocks,,,,,,,,,,,,,,,,,,,,,,,,,
-73.9806283,40.7599934,attraction,paparazzi dogman and paparazzi rabbitgirl,6th Avenue,,,,,,,,,,,,,,,,,,,,,,,,
-73.882328,40.8778866,attraction,Parking,,Parking,,,,,,,,,,,,,,,,,,,,,,,
-72.2950418,41.1309811,attraction,Parking,,Parking,,,,,,,,,,,,,,,,,,,,,,,
-76.4985888,42.4413501,attraction,Parking pay station,,Parking pay station,,,,,,,,,,,,,,,,,,,,,,,
-73.5789289,41.4929817,attraction,PATERSON,,,,,,,,,,,,,,,,,,,,,,,,,
-75.0208779,41.5671273,attraction,path continues,,,,,,,,,,,,,,,,,,,,,,,,,
-75.016188,41.5684788,attraction,path continues,,,,,,,,,,,,,,,,,,,,,,,,,
-75.0300073,41.5671298,attraction,path continues,,,,,,,,,,,,,,,,,,,,,,,,,
-75.0336646,41.5684295,attraction,path continues,,,,,,,,,,,,,,,,,,,,,,,,,
-73.2667194,42.7450669,attraction,Path Contiunes Up Steep Hill,,,,,,,,,,,,,,,,,,,,,,,,,
-74.0033029,40.7226902,attraction,Paul Nicklen Gallery,,,,,http://www.paulnicklengallery.com,10013,+16468910042,,,,,Mo-Su 12:00-19:00,,,,,,,,,,,,,
-73.8627432,41.0877252,attraction,Philipsburg manor,,,,,,,,,,,,,,,,,,,,,,,,,
-73.7319356,42.7035217,attraction,Philip Schuyler Grave,,,,,,,,,,,,,,,,,,,,,,,,,
-77.4823762,43.0090438,attraction,Phinehas Howe Young Home,Main St Fishers,,8026,,,,,,,,,,,,,,,,,,,,,,
-77.5691329,43.1562958,attraction,Photo City Improv,Atlantic Avenue,,543,,https://www.photocityimprov.com/,14609,+1-585-451-0047,yes,Rochester,,NY,,,,,nightclub,,,,,,,,,
-74.0069385,40.7440975,attraction,Point de vue 17e rue,,,,,,,,,,,,,,,,,,,,,,,,,
-76.4951565,42.4405973,attraction,Pokeland (fish?),,Pokeland (fish?),,,,,,,,,,,,,,,,,,,,,,,
-73.8771929,40.849124,attraction,Polar Bear,,,,animal,,,,yes,,,,,,,,,,,,,,,,,
-77.6221318,43.208437,attraction,Polar Bear,,,,animal,,,,,,,,,,,,,,,,,,,,,
-73.7336575,42.7074994,attraction,President Chester Arthur Grave,,,,,,,,,,,,,,,,,,,,,,,,,
-79.0696978,43.0861437,attraction,Prospect Point,,,,,,,,,,,,,,,,,,,,,,,,,
-73.9713336,40.7681959,attraction,Puffin,,,,animal,,,,,,,,,,,,,,,,,,,,,
-77.1863484,43.2816413,attraction,Pultneyville Yacht Club,Hamilton Street,,,,http://www.pultneyvilleyachtclub.org,,,,,,,,,,,,,,,,,,,,
-77.3214362,43.027851,attraction,Quaker Meeting House,,,,,,,,,,,,,,,,,,,,,,,,,
-77.6229206,43.2073596,attraction,Raccoon,,,,animal,,,,,,,,,,,,,,,,,,,,,
-73.7659479,42.6004343,attraction,Railroad Equipment,,,,,,,,,,,,,,,,,,,,http://www.railroad.net/forums/viewtopic.php?f=128&t=42743&st=0&sk=t&sd=a,,,,,
-77.2250447,43.0622927,attraction,Read Admiral Willliam T. Sampson's,Vienna Street,,112,,,,,,,,,,,,,,,,,,,,,,
-74.0104458,40.680569,attraction,Red Hook Warehouse - View of Brooklyn,,,,,,,,,,,,,,,,,,,,,,,,,
-73.9727846,40.7682913,attraction,Red Panda,,,,animal,,,,yes,,,,,,,,,,,,,,,,,
-77.2113433,43.0680039,attraction,Red School site,,,,,,,,,,,,,,,,,,,,,,,,,
-76.6967702,42.5361596,attraction,Remembrance Farm,,Remembrance Farm,,,,,,,,,,,,,,,,,,,,,,,
-78.8538756,42.9397168,attraction,Reptiles,,,,,,,,,,,,,,,,,,,,,,,,,
-75.0188355,41.5541859,attraction,RIVER ACCESS sign,,,,,,,,,,,,,,,,,,,,,,,,,
-78.8531175,42.9399263,attraction,Roan Antelope,,,,,,,,,,,,,,,,,,,,,,,,,
-77.6310377,43.1004155,attraction,Rochester Movies 10,West Henrietta Road,,2690,,http://www.rochestermovies10.com/,14623,,yes,Rochester,,NY,,,Discount movie theater with recliner seats and premium sound and projection. ,,cinema,,,,,,,,,
-73.9788005,40.7588447,attraction,Rockefeller Center,,,,,,,,,,,,,,,,,,,록펠러센터,,,,,,洛克菲勒中心
-77.2407735,43.0178085,attraction,Rockwell Family Home Site,,,,,,,,,,,,,,,,,,,,,,,,,
-78.1328049,42.8811842,attraction,Rolling Hills Asylum,Bethany Center Road,,11001,,http://www.rollinghillsasylum.com/,14054,+1 585 502 4066,,East Bethany,,,,,,,,,,,,,,,,
-77.4535824,42.9607038,attraction,Roswell Murray home site,,,7525,,,,,,,,,,,,,,,,,,,,,,
-73.9690887,40.7749308,attraction,Rowboat rentals,,Rowboat rentals,,,,,,,,,,Mo-Su 10:00-19:00,,,,,,,,,,,,,
-77.5061777,43.1869711,attraction,Royal Dynasty,Empire Boulevard,,1763,,http://royaldynastyrest.com/,14580,+1-585-671-5133,yes,Webster,,NY,,,Award winning Chinese Restaurant voted Best of Rochester multiple years in a row.  ,,restaurant,,,,,,,,,
-77.63606,43.083693,attraction,RPM Raceway,Miracle Mile Drive,,17,amusement_ride,https://rpmraceway.com,14623,+1-585-427-7223,limited,Rochester,,NY,,,Indoor high speed go kart race track,,,,,,,,,,,
-76.5865244,42.4903469,attraction,Rt 96 Self Storage,,Rt 96 Self Storage,,,,,,,,,,,,,,,,,,,,,,,
-76.8586468,42.5686522,attraction,Rue Claire Lavender Farm and Artisan Chocolate,State Highway 414,,9403,,http://rueclaire.com/,14860,(607) 582-7724,,,,,,,,,,,,,,,,,,
-77.2476831,43.0200654,attraction,Russell Stoddard Farmhouse ,,,,,,,,,,,,,,,,,,,,,,,,,
-77.2435411,43.0221469,attraction,Russell Stoddard Sawmill & Dam,,,,,,,,,,,,,,,,,,,,,,,,,
-73.9945529,40.7343016,attraction,Salmagundi club,,,,,,,,,,Q7405383,,,en:Salmagundi Club,,,,,,,,,,,,
-77.6228055,43.2079337,attraction,Sandhill Crane,,,,animal,,,,,,,,,,,,,,,,,,,,,
-73.772599,43.0725337,attraction,Saratoga Race Course: Backstretch tour,,,,,,,,,,,,,,,,,,,,,,,,,
-73.9945593,40.7552441,attraction,Schwartz Luggage Storage,West 37th Street,,357,,,10018,,,,,,,,,,,,,,,,,,,
-73.9716059,40.7683715,attraction,Seal,,,,animal,,,,yes,,,,,,,,,,,,,,,,,
-77.6223651,43.2081823,attraction,Sea Lion,,,,animal,,,,,,,,,,,,,,,,,,,,,
-73.8783535,40.8529675,attraction,Sea Lions,,,,animal,,,,yes,,,,,,,,,,,,,,,,,
-73.9717654,40.7678409,attraction,Sea Lions,,,,,,,,,,,,,,,,,,,,,,,,,
-77.6286549,43.1786657,attraction,Seat of Forgetting and Remembering,,,,,,,,,,,,,,,,,,,,,,,,,
-73.4358852,42.72609,attraction,Sentinals,,,,,,,,,,,,,,,,,,,,,,,,,
-73.9746957,40.5746144,attraction,Sharks,,,,,,,,,,,,,,,,,,,,,,,,,
-77.680465,43.0827398,attraction,Shop One,Reynolds Drive,,6000,,http://www.shopone.rit.edu,14623,585-475-2335,,Rochester,,NY,Mo-Fr 10:00-17:00,,"Shop One is the destination to discover original works that represent the diversity of RIT design talent and creativity. Paintings, prints, photography, ceramics, blown glass, textiles, jewelry, furniture, sculpture and literary publications.",,,,,,,,,,,
-73.9798497,40.5752681,attraction,Sideshows by the Seashore,,,,,,,,,,,,,,,,,,,,,,,,,
-73.9875915,40.7608186,attraction,"Sightseeing Pass, LLC",,,,,,,,,,,,,,,,,,,,,,,,,
-77.2337751,43.0643597,attraction,Site of Presbyterian Church,Church Street,,127,,,,,,,,,,,,,,,,,,,,,,
-74.0065761,40.7129805,attraction,Site of the Beach Pneumatic Subway,Murray Street,,1,,,,,,,,,,,,,,,,,,,,,,
-75.5263618,42.2282192,attraction,Site of the Prophet Trial,,,,,,,,,,,,,,,,,,,,,,,,,
-76.8674615,42.8786426,attraction,Site of the Whitmer Red Schoolhouse ,,,,,,,,,,,,,,,,,,,,,,,,,
-76.448235,42.4142374,attraction,Six Mile Creek,,Six Mile Creek,,,,,,,,,,,,,,,,,,,,,,,
-72.2937552,41.1320023,attraction,Slaves Burying Ground,,Slaves Burying Ground,,,,,,,,,,,,,,,,,,,,,,,
-73.9726493,40.7686428,attraction,Snow Leopard,,,,animal,,,,,,,,,,,,,,,,,,,,,
-77.6239388,43.2063812,attraction,Snow Leopard,,,,animal,,,,,,,,,,,,,,,,,,,,,
-73.9723113,40.7681796,attraction,Snow Monkey,,,,animal,,,,,,,,,,,,,,,,,,,,,
-75.9286261,42.3407582,attraction,Snyder's Maple,State Highway 206,,,,,,,,,,,,,,,,,,,,,,,,
-73.9987505,40.72288,attraction,SoHo,,,,,,,,,,Q461572,,,en:SoHo,,,,9,,,,,,,Сохо,纽约苏活（Soho）区
-77.4866135,42.9667573,attraction,Solomon F. Kimball Home,Boughton Hill Road,,933,,,,,,,,,,,,,,,,,,,,,,
-74.0028376,40.7057752,attraction,South Street Seaport,,,,,,,,yes,,Q223000,,,en:South Street Seaport,,,,,,,,,,,,
-75.9816975,42.3403765,attraction,SpecOpMfg (Gun shop),,SpecOpMfg (Gun shop),,,,,,,,,,,,,,,,,,,,,,,
-72.729615,40.9211723,attraction,Splish Splash,,Water Park,,,,,,,,,,,,,,,,,,,,,,,
-77.6232871,43.2073873,attraction,Spotted Hyena,,,,animal,,,,,,,,,,,,,,,,,,,,,
-73.9838591,40.7650644,attraction,Spyscape,,,,,,,,,,,,,,,,,,,,,,,,,
-75.5217608,42.2216277,attraction,Squire Zachariah Tarble ,,,,,,,,,,,,,,,,,,,,,,,,,
-73.4240291,43.8480511,attraction,Star Trek Original Series Set Tour,,,,,,,,,,Q63955771,,,,,,,,,,,,,,,
-73.9851473,40.7219911,attraction,Statue de Lénine,,,,,,,,,,,,,,,,,,,,,,,,,
-76.6603016,42.5209117,attraction,Steel Deck Bridge,,Steel Deck Bridge,,,,,,,,,,,,,,,,,,,,,,,
-73.7320321,42.7068292,attraction,Stephen Van Rensselaer Grave,,,,,,,,,,,,,,,,,,,,,,,,,
-76.5754711,42.4868378,attraction,Stick And Stone Farm and CSA,,Stick And Stone Farm and CSA,,,,,,,,,,,,,,,,,,,,,,,
-73.9658972,41.2815093,attraction,stone bridge,,,,,,,,,,,,,,,,,,,,,,,,,
-74.0021484,40.7338007,attraction,Stonewall Inn,Christopher Street,,53,,https://thestonewallinnnyc.com/,10014,,limited,New York City,Q1261362,NY,,en:Stonewall Inn,,,bar,7,,,,,,,,
-74.0056679,40.7174626,attraction,Textile building,,,,,,,,,,,,,,,,,,,,,,,,,
-72.6223147,40.9072209,attraction,The Big Duck,,,,,,,,,,,,,,,,,,,,,,,,,
-74.0034424,40.7532769,attraction,The High Line,,,,,,,,,,,,,,,,,,,,,,,,,
-74.0033107,40.7561134,attraction,The High Line (North Entrance),Highline,,,,,,,,,,,,,,,,,,,,,,,,
-76.5394327,42.4662654,attraction,The Overlook At West Hill (housing for the elderly),,The Overlook At West Hill (housing for the elderly),,,,,,,,,,,,,,,,,,,,,,,
-73.9911128,40.7549544,attraction,The Ride,,,,,,,2122210853,,,,,,,,,,,,,,,,,,
-77.6743388,43.0846164,attraction,The Sentinel,,,,,,,,,,,,,,,,,,,,,,sculpture,,,
-76.076401,42.3580029,attraction,The Smiths,,,,,,,,,,,,,,,,,,,,,,,,,
-74.2498188,40.4978464,attraction,The South Pole,,,,,,,,,,,,,,,,,,,,,,,,,
-79.0639471,43.0867421,attraction,Thunder Theater,,,,,,,,,,,,,,,,,,,,,,,,,
-77.6755295,43.0841856,attraction,Tiger,,,,,,,,,,,,,,,,,,,,,,sculpture,,,
-78.8547039,42.939367,attraction,Tiger,,,,,,,,,,,,,,,,,,,,,,,,,
-73.9856026,40.757951,attraction,Times Square,,Times Square,,,,10036,,yes,,Q11259,,,en:Times Square,,,,,,타임 스퀘어,,,,,Таймс-сквер,時報廣場
-77.5022354,42.9649488,attraction,Tomlinson Inn,Boughton Hill Road,,,,,,,,,,,,,,,,,,,,,,,,
-76.6957049,42.5365229,attraction,Tompkins/Schuyler County Line (road maintenance changes),,Tompkins/Schuyler County Line (road maintenance changes),,,,,,,,,,,,,,,,,,,,,,,
-73.9727565,40.7679978,attraction,Tortoise,,,,animal,,,,yes,,,,,,,,,,,,,,,,,
-77.6236677,43.2051658,attraction,Tortoise,,,,animal,,,,,,,,,,,,,,,,,,,,,
-74.1126005,41.1112722,attraction,Town of Ramapo Challenger Learning Center,Rt. 59,,225,,,10901,,,,,,,,,,,,,,,Lower Hudson Valley Challenger Center,,,,
-76.6378563,42.5169559,attraction,Tree Service,,Tree Service,,,,,,,,,,,,,,,,,,,,,,,
-73.8970801,40.9537095,attraction,Trevor Park,,,,,,,,,,,,,,,,,8,park,,,,,,,
-78.018531,42.0894305,attraction,Triangle 1 Monument,,,,,,,,,,,,,,Commemorates First Oil Well in Allegany County,monument,,,,,,,,,,
-74.0061043,40.7223525,attraction,TriBeCa,,TriBeCa,,,,,,,,,,,,,,,,,,,,,,,
-73.9725255,40.7676311,attraction,Tropical Zone,,,,,,,,,,,,,,,,,,,,,,,,,
-73.792192,41.2459144,attraction,Turkey Mountain Nature Preserve parking,,,,,,,,,,,,,,,,,,,,,,,,,
-76.5610097,42.4800567,attraction,Turn here for fresh eggs farm stand,,Turn here for fresh eggs farm stand,,,,,,,,,,,,,,,,,,,,,,,
-73.9777798,40.7693618,attraction,Umpire rock,,,,,,,,,,,,,,,,,,,,,,,,,
-73.6680166,42.7624063,attraction,Uncle Sam's Grave,,,,,,,,,,,,,,,grave,,,,,,Samuel Wilson Grave,,,,
-73.9766731,41.2814181,attraction,unfinished tunnel,,,,,,,,,,,,,,,,,,,,,,,,,
-77.6784087,43.0851791,attraction,Unity,,,,,http://artoncampus.rit.edu/art/568/,,,,,,,,,,,,,,,,,sculpture,,,
-74.0101274,40.673606,attraction,Van Brunt Stillhouse,Bay Street,,6,,http://vanbruntstillhouse.com,11231,+1 718-852-6405,,Brooklyn,,NY,"Fr 16:00-20:00; Sa 14:00-21:00; Su 14:00-18:00",,,,,,,,,,,,,
-78.8544325,42.9398555,attraction,Vanishing Animals North,,,,,,,,,,,,,,,,,,,,,,,,,
-78.8549116,42.9392901,attraction,Vanishing Animals South,,,,,,,,,,,,,,,,,,,,,,,,,
-77.1916745,43.0505828,attraction,Vienna rd,,,,,,,,,,,,,,,,,,,,,,,,,
-77.200779,43.0579874,attraction,Vienna Road,,,,,,,,,,,,,,,,,,,,,,,,,
-77.703733,42.8340997,attraction,Vitale Park,,,,,,,,,,,,,,,,,,,,,,,,,
-77.6233275,43.2065649,attraction,Wallaby,,,,animal,,,,,,,,,,,,,,,,,,,,,
-72.3612726,41.1019407,attraction,watchtower,,watchtower,,,,,,,,,,,,,,,,,,,,,,,
-73.845096,40.7429101,attraction,Westinghouse Time Capsules,,,,,,,,,,Q1464514,,,en:Westinghouse Time Capsules,,,,,,,,,,,,
-74.0148887,41.4494197,attraction,West Shore Milestone,,,,,,,,,,,,,,,,,,,,,,,,,
-77.6237633,43.206046,attraction,White Rhinoceros,,,,animal,,,,,,,,,,,,,,,,,,,,,
-75.1184657,42.1693715,attraction,White Rock,,,,,,13856,,,Walton,,NY,,,,,,,,,,,,,,
-73.7666527,43.0767529,attraction,Whitney Viewing Stand,,,,,https://www.saratoga.com/race-track/whitney-viewing-stand/,,,,,,,,,,,,,,,,,,,,
-73.7291031,42.7083191,attraction,William Learned Marcy Grave,,,,,,,,,,,,,,,,,,,,,,,,,
-73.7318926,42.7067857,attraction,William Paterson Grave,,,,,,,,,,,,,,,,,,,,,,,,,
-73.9575623,40.7179808,attraction,Williamsburg,,Williamsburg,,,,,,,,,,,,,,,,,,,,,,,
-77.2415126,43.0190981,attraction,William Stafford Home,Stafford Road,,405,,,,,,,,,,,,,,,,,,,,,,
-73.6796784,41.8412307,attraction,wings castle,Bangall Road,,717,,,,,,,,,,,,,,,,,,,,,,
-74.008331,40.6559467,attraction,Winter Flea + Smorgasburg,37th Street,Winter Flea Smorgasburg,241,,http://brooklynflea.com/industry-city/,11232,,,,,,Sa-Su 10:00-17:00,,,,,,,,,,,Winter Flohmarkt Smorgasburg,,
-73.979145,40.5740414,attraction,Wonder Wheel,,,,big_wheel,,,,,,,,,,,,,,,,,,,,,
-73.7558432,43.0688211,attraction,Yaddo Gardens,,,,,https://www.yaddo.org/yaddo-gardens/about/,,,,,,,,,,gardens,,,garden,,,,,,,
-78.8538993,42.9400562,attraction,Zebra,,,,,,,,,,,,,,,,,,,,,,,,,
-74.0131386,40.7037778,attraction,,Stone Street,,,,,,,,,,,,,,,,,,,,,,,,
-77.6244925,43.2071033,attraction,,,,,animal,,,,,,,,,,,,,,,,,,,,,
-73.9995755,40.7077541,attraction,,,,,,,,,yes,,,,,,,,,,,,,,,,,
-73.9972909,40.7141347,attraction,,,,,,,,,,,,,,,,,,,,,,,,,чайнатаун,
-79.0566883,43.2646139,attraction,,,,,,,,,,,,,,,,,,,,,,,,,,伊利湖东岸
-73.9993672,40.7351883,attraction,,,,,,,,,,,,,,,,,,,,,,,,,,
-73.971517,40.7577466,attraction,,,,,,,,,,,,,,,,,,,,,,,,,,
-73.9999476,40.7500099,attraction,,,,,,,,,,,,,,,,,,,,,,,,,,
-73.9092895,40.8233863,attraction,,,,,,,,,,,,,,,,,,,,,,,,,,
-74.0070512,40.7433893,attraction,,,,,,,,,,,,,,,,,,,,,,,,,,
-74.0015785,40.756969,attraction,,,,,,,,,,,,,,,,,,,,,,,,,,
-77.6799153,43.084764,attraction,,,,,,,,,,,,,,,,,,,,,,,,,,
